COSMOS 2251 DEB         
1 34797U 93036ABA 17344.43194623  .00000777  00000-0  34000-3 0  9993
2 34797  73.9854  16.5296 0094137  68.3450 355.8313 14.23068352456745
